{
  "type": "FeatureCollection",
  "name": "areas_estudio_guia",
  "crs": {"type": "name", "properties": {"name": "urn:ogc:def:crs:OGC:1.3:CRS84"}},
  "features": [
    {
      "type": "Feature",
      "properties": {
        "id": "atitlan",
        "nombre": "Lago de Atitlán",
        "tipo": "caja_envolvente_de_la_guia",
        "fuente": "Coordenadas y GeoJSON proporcionados en el Laboratorio 4",
        "uso": "extension_de_consulta_a_Copernicus"
      },
      "geometry": {
        "type": "Polygon",
        "coordinates": [[[-91.326256,14.5948],[-91.07151,14.5948],[-91.07151,14.750979],[-91.326256,14.750979],[-91.326256,14.5948]]]
      }
    },
    {
      "type": "Feature",
      "properties": {
        "id": "amatitlan",
        "nombre": "Lago de Amatitlán",
        "tipo": "caja_envolvente_de_la_guia",
        "fuente": "Coordenadas y GeoJSON proporcionados en el Laboratorio 4",
        "uso": "extension_de_consulta_a_Copernicus"
      },
      "geometry": {
        "type": "Polygon",
        "coordinates": [[[-90.638065,14.412347],[-90.512924,14.412347],[-90.512924,14.493799],[-90.638065,14.493799],[-90.638065,14.412347]]]
      }
    }
  ]
}
